NORAD_CAT_ID,OBJECT_NAME,OBJECT_TYPE,EPOCH,MEAN_MOTION,ECCENTRICITY,INCLINATION,RA_OF_ASC_NODE,ARG_OF_PERICENTER,MEAN_ANOMALY,BSTAR,MEAN_MOTION_DOT,MEAN_MOTION_DDOT,TLE_LINE0,TLE_LINE1,TLE_LINE2,SEMIMAJOR_AXIS,PERIOD,APOGEE,PERIGEE,DECAYED
51855.0,STARLINK-3545,PAYLOAD,2022-05-15 14:00:01,15.08832842,0.0002116,53.2129,157.5064,45.834,111.8134,0.0012442,0.00019565,0.0,0 STARLINK-3545,1 51855U 22022D   22135.58335648  .00019565  00000-0  12442-2 0  9998,2 51855  53.2129 157.5064 0002116  45.8340 111.8134 15.08832842  1304,6917.901999999999,95.438,541.231,538.303,0.0
51855.0,STARLINK-3545,PAYLOAD,2022-05-15 22:00:00,15.08824695,0.0001915,53.2129,156.0082,51.6184,117.5722,0.0027572,0.00043848,0.0,0 STARLINK-3545,1 51855U 22022D   22135.91667824  .00043848  00000-0  27572-2 0  9990,2 51855  53.2129 156.0082 0001915  51.6184 117.5722 15.08824695 12557,6917.927,95.439,541.117,538.467,0.0
51855.0,STARLINK-3545,PAYLOAD,2022-05-16 12:00:00,15.0883887,0.000208,53.2127,153.3913,46.4336,53.0587,1.7996e-05,-2e-08,0.0,0 STARLINK-3545,1 51855U 22022D   22136.50001157 -.00000002  00000-0  17996-4 0  9994,2 51855  53.2127 153.3913 0002080  46.4336  53.0587 15.08838870 12646,6917.884,95.438,541.188,538.31,0.0
51855.0,STARLINK-3545,PAYLOAD,2022-05-16 14:00:01,15.08854407,0.0002059,53.2125,153.0167,46.4961,145.8912,-0.0024175,-0.00038573,0.0,0 STARLINK-3545,1 51855U 22022D   22136.58334491 -.00038573  00000-0 -24175-2 0  9992,2 51855  53.2125 153.0167 0002059  46.4961 145.8912 15.08854407  1309,6917.8359999999975,95.437,541.126,538.2769999999998,0.0
51855.0,STARLINK-3545,PAYLOAD,2022-05-16 22:00:00,15.08807267,0.0001845,53.2124,151.5185,51.4246,152.5716,0.0026559,0.00042196,0.0,0 STARLINK-3545,1 51855U 22022D   22136.91667824  .00042196  00000-0  26559-2 0  9990,2 51855  53.2124 151.5185 0001845  51.4246 152.5716 15.08807267  1304,6917.98,95.44,541.122,538.569,0.0
51855.0,STARLINK-3545,PAYLOAD,2022-05-17 14:00:01,15.08838351,0.0002039,53.2121,148.5271,47.3178,179.899,-0.00022699,-3.899e-05,0.0,0 STARLINK-3545,1 51855U 22022D   22137.58335648 -.00003899  00000-0 -22699-3 0  9991,2 51855  53.2121 148.5271 0002039  47.3178 179.8990 15.08838351  1301,6917.885,95.438,541.161,538.34,0.0
51855.0,STARLINK-3545,PAYLOAD,2022-05-17 20:00:01,15.08822958,0.0001889,53.2123,147.4034,51.8543,94.0026,0.0018276,0.00028905,0.0,0 STARLINK-3545,1 51855U 22022D   22137.83334491  .00028905  00000-0  18276-2 0  9992,2 51855  53.2123 147.4034 0001889  51.8543  94.0026 15.08822958 12841,6917.932,95.439,541.104,538.491,0.0
51855.0,STARLINK-3545,PAYLOAD,2022-05-17 22:00:01,15.08819225,0.0001903,53.2122,147.0289,53.3341,185.4843,0.00273,0.00043403,0.0,0 STARLINK-3545,1 51855U 22022D   22137.91668981  .00043403  00000-0  27300-2 0  9993,2 51855  53.2122 147.0289 0001903  53.3341 185.4843 15.08819225  1302,6917.944,95.439,541.125,538.492,0.0
51855.0,STARLINK-3545,PAYLOAD,2022-05-18 12:00:00,15.08834979,0.0002094,53.2123,144.4121,47.2331,121.8157,0.0013628,0.00021465,0.0,0 STARLINK-3545,1 51855U 22022D   22138.50001157  .00021465  00000-0  13628-2 0  9997,2 51855  53.2123 144.4121 0002094  47.2331 121.8157 15.08834979 12949,6917.896,95.438,541.2090000000002,538.312,0.0
51855.0,STARLINK-3545,PAYLOAD,2022-05-18 14:00:01,15.08867412,0.0002041,53.2123,144.0376,47.6901,214.2496,-0.0031445,-0.00050025,0.0,0 STARLINK-3545,1 51855U 22022D   22138.58334491 -.00050025  00000-0 -31445-2 0  9998,2 51855  53.2123 144.0376 0002041  47.6901 214.2496 15.08867412  1305,6917.797,95.436,541.0740000000002,538.25,0.0
51855.0,STARLINK-3545,PAYLOAD,2022-05-18 22:00:00,15.08808694,0.000189,53.2125,142.5394,52.2325,221.3248,0.002363,0.00037488,0.0,0 STARLINK-3545,1 51855U 22022D   22138.91667824  .00037488  00000-0  23630-2 0  9997,2 51855  53.2125 142.5394 0001890  52.2325 221.3248 15.08808694  1304,6917.976,95.44,541.149,538.534,0.0
51855.0,STARLINK-3545,PAYLOAD,2022-05-19 06:00:00,15.08835201,0.0002055,53.2128,141.0446,49.3545,235.7778,-0.00091997,-0.00014898,0.0,0 STARLINK-3545,1 51855U 22022D   22139.25001157 -.00014898  00000-0 -91997-3 0  9990,2 51855  53.2128 141.0446 0002055  49.3545 235.7778 15.08835201 13050,6917.895,95.438,541.182,538.3380000000002,0.0
51855.0,STARLINK-3545,PAYLOAD,2022-05-19 14:00:01,15.08845477,0.0002069,53.2128,139.548,46.9627,249.8095,-0.0012456,-0.00020061,0.0,0 STARLINK-3545,1 51855U 22022D   22139.58335648 -.00020061  00000-0 -12456-2 0  9992,2 51855  53.2128 139.5480 0002069  46.9627 249.8095 15.08845477  1308,6917.864000000001,95.437,541.16,538.297,0.0
51855.0,STARLINK-3545,PAYLOAD,2022-05-19 22:00:00,15.08820892,0.0001979,53.2132,138.05,53.3013,255.0121,0.0029481,0.0004692,0.0,0 STARLINK-3545,1 51855U 22022D   22139.91667824  .00046920  00000-0  29481-2 0  9999,2 51855  53.2132 138.0500 0001979  53.3013 255.0121 15.08820892 13159,6917.939,95.439,541.173,538.435,0.0
51855.0,STARLINK-3545,PAYLOAD,2022-05-20 14:00:01,15.08869511,0.0002098,53.2135,135.0586,47.01,284.4966,-0.0040482,-0.00064195,0.0,0 STARLINK-3545,1 51855U 22022D   22140.58334491 -.00064195  00000-0 -40482-2 0  9995,2 51855  53.2135 135.0586 0002098  47.0100 284.4966 15.08869511 13258,6917.79,95.436,541.107,538.2040000000002,0.0
51855.0,STARLINK-3545,PAYLOAD,2022-05-20 22:00:00,15.08813206,0.0001966,53.214,133.5607,52.6486,290.4661,0.0028327,0.0004505,0.0,0 STARLINK-3545,1 51855U 22022D   22140.91667824  .00045050  00000-0  28327-2 0  9992,2 51855  53.2140 133.5607 0001966  52.6486 290.4661 15.08813206  1305,6917.962,95.439,541.187,538.467,0.0
51855.0,STARLINK-3545,PAYLOAD,2022-05-21 06:00:00,15.0884313,0.0002146,53.2142,132.0661,48.9016,305.8003,-0.00062517,-0.00010225,0.0,0 STARLINK-3545,1 51855U 22022D   22141.25001157 -.00010225  00000-0 -62517-3 0  9999,2 51855  53.2142 132.0661 0002146  48.9016 305.8003 15.08843130 13357,6917.871,95.437,541.22,538.251,0.0
51855.0,STARLINK-3545,PAYLOAD,2022-05-21 14:00:01,15.08872643,0.0002071,53.2141,130.5692,47.1393,319.2184,-0.0044155,-0.00069944,0.0,0 STARLINK-3545,1 51855U 22022D   22141.58335648 -.00069944  00000-0 -44155-2 0  9999,2 51855  53.2141 130.5692 0002071  47.1393 319.2184 15.08872643  1301,6917.781,95.435,541.078,538.2130000000002,0.0
51855.0,STARLINK-3545,PAYLOAD,2022-05-21 22:00:00,15.08814356,0.0001919,53.2145,129.0716,52.61600000000001,325.2907,0.0028052,0.00044609,0.0,0 STARLINK-3545,1 51855U 22022D   22141.91667824  .00044609  00000-0  28052-2 0  9997,2 51855  53.2145 129.0716 0001919  52.6160 325.2907 15.08814356  1305,6917.959,95.439,541.151,538.496,0.0
51855.0,STARLINK-3545,PAYLOAD,2022-05-22 06:00:00,15.08838715,0.000209,53.2145,127.5769,48.4663,341.0223,-0.00044805,-7.412e-05,0.0,0 STARLINK-3545,1 51855U 22022D   22142.25001157 -.00007412  00000-0 -44805-3 0  9994,2 51855  53.2145 127.5769 0002090  48.4663 341.0223 15.08838715 13505,6917.884,95.438,541.195,538.303,0.0
51855.0,STARLINK-3545,PAYLOAD,2022-05-22 14:00:01,15.08867972,0.0001997,53.2143,126.0799,47.1007,353.9749,-0.0047005,-0.00074384,0.0,0 STARLINK-3545,1 51855U 22022D   22142.58334491 -.00074384  00000-0 -47005-2 0  9996,2 51855  53.2143 126.0799 0001997  47.1007 353.9749 15.08867972  1300,6917.795,95.436,541.0409999999998,538.278,0.0
51855.0,STARLINK-3545,PAYLOAD,2022-05-22 22:00:01,15.08814427,0.0001823,53.2146,124.5823,52.5463,0.1981,0.0025615,0.00040686,0.0,0 STARLINK-3545,1 51855U 22022D   22142.91668981  .00040686  00000-0  25615-2 0  9996,2 51855  53.2146 124.5823 0001823  52.5463   0.1981 15.08814427  1304,6917.959,95.439,541.085,538.562,0.0
51855.0,STARLINK-3545,PAYLOAD,2022-05-23 14:00:01,15.08865392,0.0001896,53.2141,121.5906,47.4717,28.3705,-0.0043013,-0.00068145,0.0,0 STARLINK-3545,1 51855U 22022D   22143.58334491 -.00068145  00000-0 -43013-2 0  9990,2 51855  53.2141 121.5906 0001896  47.4717  28.3705 15.08865392 13714,6917.803000000001,95.436,540.979,538.356,0.0
51855.0,STARLINK-3545,PAYLOAD,2022-05-23 22:00:01,15.08813547,0.0001733,53.2143,120.0931,52.7098,34.7973,0.0020155,0.00031911,0.0,0 STARLINK-3545,1 51855U 22022D   22143.91668981  .00031911  00000-0  20155-2 0  9992,2 51855  53.2143 120.0931 0001733  52.7098  34.7973 15.08813547  1304,6917.9609999999975,95.439,541.025,538.627,0.0
51855.0,STARLINK-3545,PAYLOAD,2022-05-24 06:00:02,15.08825133,0.0001906,53.214,118.5986,48.0217,51.0629,0.000234,3.436e-05,0.0,0 STARLINK-3545,1 51855U 22022D   22144.25002315  .00003436  00000-0  23400-3 0  9991,2 51855  53.2140 118.5986 0001906  48.0217  51.0629 15.08825133 13819,6917.926,95.438,541.109,538.472,0.0
51855.0,STARLINK-3545,PAYLOAD,2022-05-24 14:00:01,15.08846364,0.0001834,53.2136,117.1012,48.7438,61.8507,-0.0016527,-0.000265,0.0,0 STARLINK-3545,1 51855U 22022D   22144.58334491 -.00026500  00000-0 -16527-2 0  9990,2 51855  53.2136 117.1012 0001834  48.7438  61.8507 15.08846364  1305,6917.861,95.437,540.995,538.457,0.0
51855.0,STARLINK-3545,PAYLOAD,2022-05-24 22:00:00,15.088464000000002,0.000174,53.2137,115.6039,54.4931,67.691,-0.0005834,-9.563e-05,0.0,0 STARLINK-3545,1 51855U 22022D   22144.91667824 -.00009563  00000-0 -58340-3 0  9996,2 51855  53.2137 115.6039 0001740  54.4931  67.6910 15.08846400  1309,6917.861,95.437,540.93,538.5219999999998,0.0
51855.0,STARLINK-3545,PAYLOAD,2022-05-25 12:00:00,15.08837107,0.0001814,53.213,112.9862,46.2157,6.25,-0.0008568,-0.00013897,0.0,0 STARLINK-3545,1 51855U 22022D   22145.50001157 -.00013897  00000-0 -85680-3 0  9995,2 51855  53.2130 112.9862 0001814  46.2157   6.2500 15.08837107 14006,6917.889,95.438,541.009,538.499,0.0
51855.0,STARLINK-3545,PAYLOAD,2022-05-25 14:00:01,15.08841418,0.000176,53.2131,112.6116,48.8207,96.54,-0.0014519,-0.00023322,0.0,0 STARLINK-3545,1 51855U 22022D   22145.58334491 -.00023322  00000-0 -14519-2 0  9999,2 51855  53.2131 112.6116 0001760  48.8207  96.5400 15.08841418  1300,6917.876,95.437,540.9590000000002,538.524,0.0
